     2.100          NAVIGATION                              RINEX VERSION / TYPE
fic2rin                                 07/30/2009 01:59:57 PGM / RUN BY / DATE
                                                            END OF HEADER
23 09  7 29 12  0  0.0  .389840919524D-03 -.227373675443D-12  .000000000000D+00
     .730000000000D+02 -.289375000000D+02  .455768984608D-08  .236821906823D+01
    -.135041773319D-05  .637677090708D-02  .453740358353D-05  .515359158134D+04
     .302400000000D+06 -.670552253723D-07  .575655105751D+00  .244006514549D-06
     .970250317997D+00  .298968750000D+03  .292543810145D+01 -.821605651745D-08
    -.117147736816D-09  .100000000000D+01  .154200000000D+04  .000000000000D+00
     .240000000000D+01  .000000000000D+00 -.200234353542D-07  .730000000000D+02
     .295206000000D+06  .400000000000D+01
25 09  7 29 12  0  0.0  .529893208295D-03  .167119651451D-10  .000000000000D+00
     .510000000000D+02 -.586562500000D+02  .431696553323D-08 -.102451418909D+01
    -.305846333504D-05  .112659473671D-01  .792741775513D-05  .515365234375D+04
     .302400000000D+06 -.189989805222D-06  .152323738376D+01 -.931322574615D-07
     .970182116757D+00  .229781250000D+03 -.121035057303D+01 -.819034116058D-08
     .160720980388D-10  .100000000000D+01  .154200000000D+04  .000000000000D+00
     .240000000000D+01  .000000000000D+00 -.745058059692D-08  .510000000000D+02
     .295206000000D+06  .400000000000D+01
26 09  7 29 12  0  0.0  .647627748549D-04 -.113686837722D-12  .000000000000D+00
     .990000000000D+02 -.231875000000D+02  .406766943476D-08  .482519160620D+00
    -.981613993645D-06  .202647887636D-01  .507384538651D-05  .515491084480D+04
     .302400000000D+06 -.186264514923D-06  .626650570626D+00  .121071934700D-06
     .992622270679D+00  .300531250000D+03  .102818697367D+01 -.822248535666D-08
    -.252510518077D-09  .100000000000D+01  .154200000000D+04  .000000000000D+00
     .340000000000D+01  .000000000000D+00 -.651925802231D-08  .990000000000D+02
     .295206000000D+06  .400000000000D+01
27 09  7 29 12  0  0.0  .697039067745D-04  .318323145621D-11  .000000000000D+00
     .840000000000D+02 -.655000000000D+02  .414088677027D-08 -.312327130163D+01
    -.320561230183D-05  .213049588492D-01  .688806176186D-05  .515376433945D+04
     .302400000000D+06  .441446900368D-06  .155984644495D+01  .391155481339D-07
     .974926134798D+00  .247843750000D+03 -.156667494717D+01 -.757281543816D-08
     .285726187357D-11  .100000000000D+01  .154200000000D+04  .000000000000D+00
     .240000000000D+01  .000000000000D+00 -.419095158577D-08  .840000000000D+02
     .295206000000D+06  .400000000000D+01
28 09  7 29 12  0  0.0 -.260644592345D-04 -.113686837722D-12  .000000000000D+00
     .590000000000D+02 -.287187500000D+02  .424803409053D-08 -.223016042866D+01
    -.145845115185D-05  .149741010973D-01  .742264091969D-05  .515364615250D+04
     .302400000000D+06  .169500708580D-06  .269546144872D+01 -.134110450745D-06
     .967460601977D+00  .239812500000D+03 -.202138183780D+01 -.757745848870D-08
     .257510726355D-09  .100000000000D+01  .154200000000D+04  .000000000000D+00
     .485000000000D+01  .000000000000D+00 -.107102096081D-07  .590000000000D+02
     .295206000000D+06  .400000000000D+01
29 09  7 29 12  0  0.0  .438401475549D-04  .352429196937D-11  .000000000000D+00
     .780000000000D+02 -.222500000000D+02  .452197407266D-08 -.184539104760D+00
    -.109337270260D-05  .329265848268D-02  .774674117565D-05  .515363549995D+04
     .302400000000D+06 -.156462192535D-06 -.254551403234D+01 -.502914190292D-07
     .960173776303D+00  .231718750000D+03 -.129173061381D+01 -.795676000242D-08
    -.115004790411D-09  .100000000000D+01  .154200000000D+04  .000000000000D+00
     .240000000000D+01  .000000000000D+00 -.884756445885D-08  .780000000000D+02
     .295206000000D+06  .400000000000D+01
30 09  7 29 12  0  0.0  .164642930031D-03  .295585778076D-11  .000000000000D+00
     .690000000000D+02 -.230625000000D+02  .466876590141D-08 -.172563932246D+01
    -.115111470222D-05  .117089054547D-01  .711530447006D-05  .515356424713D+04
     .302400000000D+06  .193715095520D-06  .262156057809D+01  .195577740669D-06
     .952903339700D+00  .237531250000D+03  .143292352610D+01 -.800176187693D-08
     .120719314158D-09  .100000000000D+01  .154200000000D+04  .000000000000D+00
     .240000000000D+01  .000000000000D+00 -.838190317154D-08  .690000000000D+02
     .295206000000D+06  .400000000000D+01
31 09  7 29 12  0  0.0 -.643520615995D-04 -.454747350886D-12  .000000000000D+00
     .440000000000D+02 -.476875000000D+02  .421160400164D-08  .590409695197D+00
    -.263378024101D-05  .698542152531D-02  .788830220699D-05  .515375916100D+04
     .302400000000D+06 -.521540641785D-07  .161583159863D+01 -.106170773506D-06
     .973336516310D+00  .238218750000D+03 -.113825692410D+01 -.799283293357D-08
    -.217866217860D-10  .100000000000D+01  .154200000000D+04  .000000000000D+00
     .240000000000D+01  .000000000000D+00 -.130385160446D-07  .440000000000D+02
     .295206000000D+06  .400000000000D+01
32 09  7 29 12  0  0.0  .224125571549D-03 -.636646291241D-11  .000000000000D+00
     .180000000000D+02  .614687500000D+02  .464626496416D-08  .152164307516D+01
     .308826565742D-05  .132382942829D-01  .469386577606D-05  .515376521873D+04
     .302400000000D+06  .337138772011D-06 -.391879002008D+00 -.204890966415D-06
     .963279990261D+00  .291781250000D+03 -.113820592239D+01 -.810819488172D-08
     .882179603464D-10  .100000000000D+01  .154200000000D+04  .000000000000D+00
     .240000000000D+01  .000000000000D+00 -.325962901115D-08  .180000000000D+02
     .295206000000D+06  .400000000000D+01
26 09  7 29 11 59 44.0  .647646375000D-04 -.113686837722D-12  .000000000000D+00
     .210000000000D+02 -.231875000000D+02  .406766943476D-08  .480187210685D+00
    -.981613993645D-06  .202647991246D-01  .507384538651D-05  .515491082954D+04
     .302384000000D+06 -.186264514923D-06  .626650703751D+00  .121071934700D-06
     .992622297012D+00  .300531250000D+03  .102818693563D+01 -.822248535666D-08
    -.252510518077D-09  .100000000000D+01  .154200000000D+04  .000000000000D+00
     .240000000000D+01  .000000000000D+00 -.651925802231D-08  .210000000000D+02
     .296136000000D+06  .400000000000D+01
28 09  7 29 11 59 44.0 -.260733067989D-04 -.113686837722D-12  .000000000000D+00
     .100000000000D+02 -.287187500000D+02  .424803409053D-08 -.223249440328D+01
    -.145845115185D-05  .149740977213D-01  .742264091969D-05  .515364615631D+04
     .302384000000D+06  .169500708580D-06  .269546156575D+01 -.134110450745D-06
     .967460607829D+00  .239812500000D+03 -.202138165493D+01 -.757745848870D-08
     .257510726355D-09  .100000000000D+01  .154200000000D+04  .000000000000D+00
     .240000000000D+01  .000000000000D+00 -.107102096081D-07  .100000000000D+02
     .296736000000D+06  .400000000000D+01
14 09  7 29 11 59 44.0 -.729640014470D-04  .557065504836D-11  .000000000000D+00
     .250000000000D+02 -.227812500000D+02  .400016662300D-08  .300707450545D+01
    -.119954347610D-05  .468029594049D-02  .485219061375D-05  .515363216019D+04
     .302384000000D+06 -.260770320892D-07  .609258799240D+00 -.163912773132D-06
     .988277130418D+00  .298343750000D+03 -.216976298386D+01 -.785354141724D-08
    -.163935399996D-09  .100000000000D+01  .154200000000D+04  .000000000000D+00
     .240000000000D+01  .000000000000D+00 -.931322574615D-08  .250000000000D+02
     .298206000000D+06  .400000000000D+01
10 09  7 29 11 59 44.0 -.201403163373D-04 -.795807864051D-12  .000000000000D+00
     .190000000000D+02  .810000000000D+02  .470841040991D-08 -.282844195877D+01
     .396557152271D-05  .856846536044D-02  .549666583538D-05  .515364605904D+04
     .302384000000D+06 -.502914190292D-07 -.453364168826D+00 -.214204192162D-06
     .957526415379D+00  .274562500000D+03  .624927095133D+00 -.812140971788D-08
     .129291099779D-09  .100000000000D+01  .154200000000D+04  .000000000000D+00
     .240000000000D+01  .000000000000D+00 -.279396772385D-08  .190000000000D+02
     .299766000000D+06  .400000000000D+01
 1 09  7 29 11 59 44.0 -.616642646492D-04  .250111042988D-11  .000000000000D+00
     .380000000000D+02 -.261250000000D+02  .576916888047D-08 -.131010314011D+01
    -.146590173244D-05  .365934229922D-02  .726431608200D-05  .515373727226D+04
     .302384000000D+06  .894069671631D-07  .265782080353D+01  .279396772385D-07
     .961710470804D+00  .241625000000D+03  .941443159846D+00 -.798711840983D-08
     .110361739867D-09  .100000000000D+01  .154200000000D+04  .000000000000D+00
     .240000000000D+01  .630000000000D+02 -.130385160446D-07  .380000000000D+02
     .300546000000D+06  .400000000000D+01
 8 09  7 29 11 59 44.0 -.214138533920D-03 -.170530256582D-11  .000000000000D+00
     .000000000000D+00 -.642187500000D+02  .383015954152D-08  .716475188982D-01
    -.361911952496D-05  .107817609096D-01  .818073749542D-05  .515363625526D+04
     .302384000000D+06  .119209289551D-06  .167933261974D+01 -.186264514923D-08
     .989203080027D+00  .235718750000D+03  .300245224023D+01 -.782639742944D-08
    -.257153568621D-10  .100000000000D+01  .154200000000D+04  .000000000000D+00
     .240000000000D+01  .000000000000D+00 -.372529029846D-08  .000000000000D+00
     .301986000000D+06  .400000000000D+01
 1 09  7 29 13 59 44.0 -.616461038589D-04  .250111042988D-11  .000000000000D+00
     .390000000000D+02 -.281875000000D+02  .591560355149D-08 -.260086077149D+00
    -.148266553879D-05  .365879794117D-02  .721774995327D-05  .515373587799D+04
     .309584000000D+06  .000000000000D+00  .265776289685D+01  .186264514923D-07
     .961710886273D+00  .236812500000D+03  .941578097947D+00 -.807355058150D-08
     .113933317209D-09  .100000000000D+01  .154200000000D+04  .000000000000D+00
     .240000000000D+01  .630000000000D+02 -.130385160446D-07  .390000000000D+02
     .302406000000D+06  .400000000000D+01
